CCSDS_OMM_VERS = 2.0
CREATION_DATE  = 
ORIGINATOR     = 

OBJECT_NAME    = STARLINK-36629
OBJECT_ID      = 2026-018H
CENTER_NAME    = EARTH
REF_FRAME      = TEME
TIME_SYSTEM    = UTC
MEAN_ELEMENT_THEORY = SGP/SGP4

EPOCH          = 2026-02-05T18:00:02.000160
MEAN_MOTION    = 15.96291681
ECCENTRICITY   = .00014952
INCLINATION    = 97.2788
RA_OF_ASC_NODE = 100.8370
ARG_OF_PERICENTER = 86.8408
MEAN_ANOMALY   = 155.8490

EPHEMERIS_TYPE = 0
CLASSIFICATION_TYPE = U
NORAD_CAT_ID   = 67596
ELEMENT_SET_NO = 999
REV_AT_EPOCH   = 220
BSTAR          = -.43589428E-2
MEAN_MOTION_DOT = -.1783429E-1
MEAN_MOTION_DDOT = .92010472E-3

CCSDS_OMM_VERS = 2.0
CREATION_DATE  = 
ORIGINATOR     = 

OBJECT_NAME    = STARLINK-36384
OBJECT_ID      = 2026-018J
CENTER_NAME    = EARTH
REF_FRAME      = TEME
TIME_SYSTEM    = UTC
MEAN_ELEMENT_THEORY = SGP/SGP4

EPOCH          = 2026-02-05T18:00:02.000160
MEAN_MOTION    = 15.96486286
ECCENTRICITY   = .00015407
INCLINATION    = 97.2786
RA_OF_ASC_NODE = 100.8383
ARG_OF_PERICENTER = 81.6928
MEAN_ANOMALY   = 163.8721

EPHEMERIS_TYPE = 0
CLASSIFICATION_TYPE = U
NORAD_CAT_ID   = 67597
ELEMENT_SET_NO = 999
REV_AT_EPOCH   = 226
BSTAR          = -.4307214E-2
MEAN_MOTION_DOT = -.178093E-1
MEAN_MOTION_DDOT = .91963584E-3

CCSDS_OMM_VERS = 2.0
CREATION_DATE  = 
ORIGINATOR     = 

OBJECT_NAME    = STARLINK-36358
OBJECT_ID      = 2026-018K
CENTER_NAME    = EARTH
REF_FRAME      = TEME
TIME_SYSTEM    = UTC
MEAN_ELEMENT_THEORY = SGP/SGP4

EPOCH          = 2026-02-05T18:00:02.000160
MEAN_MOTION    = 15.96610109
ECCENTRICITY   = .00014646
INCLINATION    = 97.2784
RA_OF_ASC_NODE = 100.8390
ARG_OF_PERICENTER = 90.6240
MEAN_ANOMALY   = 157.0076

EPHEMERIS_TYPE = 0
CLASSIFICATION_TYPE = U
NORAD_CAT_ID   = 67598
ELEMENT_SET_NO = 999
REV_AT_EPOCH   = 225
BSTAR          = -.42587064E-2
MEAN_MOTION_DOT = -.1772789E-1
MEAN_MOTION_DDOT = .91301208E-3

CCSDS_OMM_VERS = 2.0
CREATION_DATE  = 
ORIGINATOR     = 

OBJECT_NAME    = STARLINK-36582
OBJECT_ID      = 2026-018L
CENTER_NAME    = EARTH
REF_FRAME      = TEME
TIME_SYSTEM    = UTC
MEAN_ELEMENT_THEORY = SGP/SGP4

EPOCH          = 2026-02-05T18:00:02.000160
MEAN_MOTION    = 15.96814224
ECCENTRICITY   = .00015346
INCLINATION    = 97.2784
RA_OF_ASC_NODE = 100.8405
ARG_OF_PERICENTER = 85.3807
MEAN_ANOMALY   = 165.3159

EPHEMERIS_TYPE = 0
CLASSIFICATION_TYPE = U
NORAD_CAT_ID   = 67599
ELEMENT_SET_NO = 999
REV_AT_EPOCH   = 231
BSTAR          = -.41890069E-2
MEAN_MOTION_DOT = -.1763318E-1
MEAN_MOTION_DDOT = .90592236E-3

CCSDS_OMM_VERS = 2.0
CREATION_DATE  = 
ORIGINATOR     = 

OBJECT_NAME    = STARLINK-36640
OBJECT_ID      = 2026-018M
CENTER_NAME    = EARTH
REF_FRAME      = TEME
TIME_SYSTEM    = UTC
MEAN_ELEMENT_THEORY = SGP/SGP4

EPOCH          = 2026-02-05T18:00:02.000160
MEAN_MOTION    = 15.97162308
ECCENTRICITY   = .0001466
INCLINATION    = 97.2781
RA_OF_ASC_NODE = 100.8429
ARG_OF_PERICENTER = 83.6675
MEAN_ANOMALY   = 172.2543

EPHEMERIS_TYPE = 0
CLASSIFICATION_TYPE = U
NORAD_CAT_ID   = 67600
ELEMENT_SET_NO = 999
REV_AT_EPOCH   = 221
BSTAR          = -.40962253E-2
MEAN_MOTION_DOT = -.1757284E-1
MEAN_MOTION_DDOT = .90356525E-3

CCSDS_OMM_VERS = 2.0
CREATION_DATE  = 
ORIGINATOR     = 

OBJECT_NAME    = STARLINK-36635
OBJECT_ID      = 2026-018N
CENTER_NAME    = EARTH
REF_FRAME      = TEME
TIME_SYSTEM    = UTC
MEAN_ELEMENT_THEORY = SGP/SGP4

EPOCH          = 2026-02-05T18:00:02.000160
MEAN_MOTION    = 15.96966315
ECCENTRICITY   = .00015456
INCLINATION    = 97.2781
RA_OF_ASC_NODE = 100.8415
ARG_OF_PERICENTER = 82.2623
MEAN_ANOMALY   = 170.7575

EPHEMERIS_TYPE = 0
CLASSIFICATION_TYPE = U
NORAD_CAT_ID   = 67601
ELEMENT_SET_NO = 999
REV_AT_EPOCH   = 221
BSTAR          = -.41522062E-2
MEAN_MOTION_DOT = -.1762349E-1
MEAN_MOTION_DDOT = .90649618E-3

CCSDS_OMM_VERS = 2.0
CREATION_DATE  = 
ORIGINATOR     = 

OBJECT_NAME    = STARLINK-36631
OBJECT_ID      = 2026-018P
CENTER_NAME    = EARTH
REF_FRAME      = TEME
TIME_SYSTEM    = UTC
MEAN_ELEMENT_THEORY = SGP/SGP4

EPOCH          = 2026-02-05T18:00:02.000160
MEAN_MOTION    = 15.97374252
ECCENTRICITY   = .00014569
INCLINATION    = 97.2778
RA_OF_ASC_NODE = 100.8441
ARG_OF_PERICENTER = 82.0642
MEAN_ANOMALY   = 176.9411

EPHEMERIS_TYPE = 0
CLASSIFICATION_TYPE = U
NORAD_CAT_ID   = 67602
ELEMENT_SET_NO = 999
REV_AT_EPOCH   = 220
BSTAR          = -.40419005E-2
MEAN_MOTION_DOT = -.1754194E-1
MEAN_MOTION_DDOT = .90269416E-3

CCSDS_OMM_VERS = 2.0
CREATION_DATE  = 
ORIGINATOR     = 

OBJECT_NAME    = STARLINK-36626
OBJECT_ID      = 2026-018Q
CENTER_NAME    = EARTH
REF_FRAME      = TEME
TIME_SYSTEM    = UTC
MEAN_ELEMENT_THEORY = SGP/SGP4

EPOCH          = 2026-02-05T18:00:02.000160
MEAN_MOTION    = 15.97893770
ECCENTRICITY   = .00013955
INCLINATION    = 97.2773
RA_OF_ASC_NODE = 100.8472
ARG_OF_PERICENTER = 83.5239
MEAN_ANOMALY   = 183.3820

EPHEMERIS_TYPE = 0
CLASSIFICATION_TYPE = U
NORAD_CAT_ID   = 67603
ELEMENT_SET_NO = 999
REV_AT_EPOCH   = 220
BSTAR          = -.38837315E-2
MEAN_MOTION_DOT = -.173448E-1
MEAN_MOTION_DDOT = .88889411E-3

CCSDS_OMM_VERS = 2.0
CREATION_DATE  = 
ORIGINATOR     = 

OBJECT_NAME    = STARLINK-36605
OBJECT_ID      = 2026-018R
CENTER_NAME    = EARTH
REF_FRAME      = TEME
TIME_SYSTEM    = UTC
MEAN_ELEMENT_THEORY = SGP/SGP4

EPOCH          = 2026-02-05T18:00:02.000160
MEAN_MOTION    = 15.97759173
ECCENTRICITY   = .00014706
INCLINATION    = 97.2772
RA_OF_ASC_NODE = 100.8460
ARG_OF_PERICENTER = 84.3197
MEAN_ANOMALY   = 180.4453

EPHEMERIS_TYPE = 0
CLASSIFICATION_TYPE = U
NORAD_CAT_ID   = 67604
ELEMENT_SET_NO = 999
REV_AT_EPOCH   = 220
BSTAR          = -.39256499E-2
MEAN_MOTION_DOT = -.1740228E-1
MEAN_MOTION_DDOT = .89307989E-3

CCSDS_OMM_VERS = 2.0
CREATION_DATE  = 
ORIGINATOR     = 

OBJECT_NAME    = STARLINK-36281
OBJECT_ID      = 2026-018S
CENTER_NAME    = EARTH
REF_FRAME      = TEME
TIME_SYSTEM    = UTC
MEAN_ELEMENT_THEORY = SGP/SGP4

EPOCH          = 2026-02-05T18:00:02.000160
MEAN_MOTION    = 15.97581341
ECCENTRICITY   = .00014251
INCLINATION    = 97.2773
RA_OF_ASC_NODE = 100.8447
ARG_OF_PERICENTER = 93.3458
MEAN_ANOMALY   = 168.7482

EPHEMERIS_TYPE = 0
CLASSIFICATION_TYPE = U
NORAD_CAT_ID   = 67605
ELEMENT_SET_NO = 999
REV_AT_EPOCH   = 225
BSTAR          = -.39737962E-2
MEAN_MOTION_DOT = -.1744404E-1
MEAN_MOTION_DDOT = .89533058E-3

CCSDS_OMM_VERS = 2.0
CREATION_DATE  = 
ORIGINATOR     = 

OBJECT_NAME    = STARLINK-35843
OBJECT_ID      = 2026-018T
CENTER_NAME    = EARTH
REF_FRAME      = TEME
TIME_SYSTEM    = UTC
MEAN_ELEMENT_THEORY = SGP/SGP4

EPOCH          = 2026-02-05T18:00:02.000160
MEAN_MOTION    = 15.98052657
ECCENTRICITY   = .0001456
INCLINATION    = 97.2770
RA_OF_ASC_NODE = 100.8478
ARG_OF_PERICENTER = 80.0230
MEAN_ANOMALY   = 189.3495

EPHEMERIS_TYPE = 0
CLASSIFICATION_TYPE = U
NORAD_CAT_ID   = 67606
ELEMENT_SET_NO = 999
REV_AT_EPOCH   = 226
BSTAR          = -.38337654E-2
MEAN_MOTION_DOT = -.1727315E-1
MEAN_MOTION_DDOT = .8835951E-3

CCSDS_OMM_VERS = 2.0
CREATION_DATE  = 
ORIGINATOR     = 

OBJECT_NAME    = STARLINK-36351
OBJECT_ID      = 2026-018U
CENTER_NAME    = EARTH
REF_FRAME      = TEME
TIME_SYSTEM    = UTC
MEAN_ELEMENT_THEORY = SGP/SGP4

EPOCH          = 2026-02-05T18:00:02.000160
MEAN_MOTION    = 15.98194934
ECCENTRICITY   = .00013524
INCLINATION    = 97.2772
RA_OF_ASC_NODE = 100.8492
ARG_OF_PERICENTER = 84.1634
MEAN_ANOMALY   = 187.3962

EPHEMERIS_TYPE = 0
CLASSIFICATION_TYPE = U
NORAD_CAT_ID   = 67607
ELEMENT_SET_NO = 999
REV_AT_EPOCH   = 226
BSTAR          = -.37964455E-2
MEAN_MOTION_DOT = -.1723992E-1
MEAN_MOTION_DDOT = .88181071E-3

