STARLINK-36629          
1 67596U 26018H   26036.75002315 -.01783429  92010-3 -43589-2 0  9992
2 67596  97.2788 100.8370 0001495  86.8408 155.8490 15.96291681  2202
STARLINK-36384          
1 67597U 26018J   26036.75002315 -.01780930  91964-3 -43072-2 0  9991
2 67597  97.2786 100.8383 0001540  81.6928 163.8721 15.96486286  2265
STARLINK-36358          
1 67598U 26018K   26036.75002315 -.01772789  91301-3 -42587-2 0  9990
2 67598  97.2784 100.8390 0001464  90.6240 157.0076 15.96610109  2254
STARLINK-36582          
1 67599U 26018L   26036.75002315 -.01763318  90592-3 -41890-2 0  9996
2 67599  97.2784 100.8405 0001534  85.3807 165.3159 15.96814224  2315
STARLINK-36640          
1 67600U 26018M   26036.75002315 -.01757284  90357-3 -40962-2 0  9992
2 67600  97.2781 100.8429 0001466  83.6675 172.2543 15.97162308  2212
STARLINK-36635          
1 67601U 26018N   26036.75002315 -.01762349  90650-3 -41522-2 0  9990
2 67601  97.2781 100.8415 0001545  82.2623 170.7575 15.96966315  2211
STARLINK-36631          
1 67602U 26018P   26036.75002315 -.01754194  90269-3 -40419-2 0  9990
2 67602  97.2778 100.8441 0001456  82.0642 176.9411 15.97374252  2207
STARLINK-36626          
1 67603U 26018Q   26036.75002315 -.01734480  88889-3 -38837-2 0  9993
2 67603  97.2773 100.8472 0001395  83.5239 183.3820 15.97893770  2204
STARLINK-36605          
1 67604U 26018R   26036.75002315 -.01740228  89308-3 -39256-2 0  9994
2 67604  97.2772 100.8460 0001470  84.3197 180.4453 15.97759173  2205
STARLINK-36281          
1 67605U 26018S   26036.75002315 -.01744404  89533-3 -39738-2 0  9990
2 67605  97.2773 100.8447 0001425  93.3458 168.7482 15.97581341  2258
STARLINK-35843          
1 67606U 26018T   26036.75002315 -.01727315  88360-3 -38338-2 0  9995
2 67606  97.2770 100.8478 0001456  80.0230 189.3495 15.98052657  2263
STARLINK-36351          
1 67607U 26018U   26036.75002315 -.01723992  88181-3 -37964-2 0  9998
2 67607  97.2772 100.8492 0001352  84.1634 187.3962 15.98194934  2262
